      2.10          N: GNSS NAV DATA                        RINEX VERSION / TYPE
fic2rin                                 03/10/2023 00:17:27 PGM / RUN BY / DATE
                                                            END OF HEADER
7  23  3  9  1 59 44.0  .226900447160D-03 -.761701812735D-11  .000000000000D+00
     .200000000000D+01  .447500000000D+02  .428553565262D-08  .269337427278D+01
     .220537185669D-05  .168630752014D-01  .127851963043D-04  .515359510231D+04
     .352784000000D+06  .745058059692D-07  .614611124952D+00 -.189989805222D-06
     .950792457168D+00  .124531250000D+03 -.221990796522D+01 -.765103298195D-08
     .365729519817D-09  .100000000000D+01  .225200000000D+04  .000000000000D+00
     .240000000000D+01  .000000000000D+00 -.111758708954D-07  .200000000000D+01
     .345600000000D+06  .400000000000D+01
2  23  3  9  2  0  0.0 -.615715514868D-03  .272848410532D-11  .000000000000D+00
     .810000000000D+02  .278437500000D+02  .415053002909D-08  .227470140096D+01
     .151991844177D-05  .199157433817D-01  .116266310215D-04  .515368469810D+04
     .352800000000D+06  .268220901489D-06 -.261064343050D+01 -.521540641785D-07
     .967439617880D+00  .153468750000D+03 -.131902914793D+01 -.747495421899D-08
     .292869342041D-10  .100000000000D+01  .225200000000D+04  .000000000000D+00
     .240000000000D+01  .000000000000D+00 -.176951289177D-07  .810000000000D+02
     .345600000000D+06  .400000000000D+01
1  23  3  9  2  0  0.0  .204720534384D-03 -.386535248253D-11  .000000000000D+00
     .950000000000D+02  .617500000000D+02  .363872299599D-08 -.300255001583D+01
     .297464430332D-05  .124664190225D-01  .125747174025D-04  .515365495682D+04
     .352800000000D+06  .651925802231D-07 -.251345570846D+01 -.199303030968D-06
     .989768764116D+00  .149031250000D+03  .938533723000D+00 -.740387982988D-08
     .300369654459D-09  .100000000000D+01  .225200000000D+04  .000000000000D+00
     .240000000000D+01  .000000000000D+00  .465661287308D-08  .950000000000D+02
     .345600000000D+06  .400000000000D+01
5  23  3  9  2  0  0.0 -.118733383715D-03 -.147792889038D-11  .000000000000D+00
     .810000000000D+02  .408750000000D+02  .492806241644D-08 -.413375705432D+00
     .224448740482D-05  .578323542140D-02  .357069075108D-05  .515361964798D+04
     .352800000000D+06 -.782310962677D-07 -.152762850939D+01  .167638063431D-07
     .964455746299D+00  .309687500000D+03  .112987423235D+01 -.855892794227D-08
     .157506560780D-09  .100000000000D+01  .225200000000D+04  .000000000000D+00
     .240000000000D+01  .000000000000D+00 -.111758708954D-07  .810000000000D+02
     .345600000000D+06  .400000000000D+01
3  23  3  9  2  0  0.0 -.352909322828D-03  .602540239925D-11  .000000000000D+00
     .670000000000D+02  .366875000000D+02  .456090426568D-08  .213141385915D+01
     .173225998878D-05  .452587055042D-02  .331178307533D-05  .515370289803D+04
     .352800000000D+06 -.391155481339D-07 -.148208194915D+01 -.119209289551D-06
     .977423217463D+00  .322812500000D+03  .100842794189D+01 -.824855787126D-08
     .151792037033D-09  .100000000000D+01  .225200000000D+04  .000000000000D+00
     .240000000000D+01  .000000000000D+00  .186264514923D-08  .670000000000D+02
     .345600000000D+06  .400000000000D+01
8  23  3  9  2  0  0.0 -.112022738904D-03 -.181898940355D-11  .000000000000D+00
     .980000000000D+02 -.704062500000D+02  .471305346045D-08 -.789343290654D+00
    -.369176268578D-05  .839972542599D-02  .789202749729D-05  .515366275787D+04
     .352800000000D+06  .134110450745D-06  .268086138877D+01 -.298023223877D-07
     .959855765708D+00  .222750000000D+03  .232114122336D+00 -.821855662159D-08
    -.395730769489D-09  .100000000000D+01  .225200000000D+04  .000000000000D+00
     .240000000000D+01  .000000000000D+00  .512227416039D-08  .980000000000D+02
     .345600000000D+06  .400000000000D+01
6  23  3  9  2  0  0.0  .579700339586D-03  .318323145621D-11  .000000000000D+00
     .930000000000D+02  .523750000000D+02  .376444251843D-08 -.278557887452D+01
     .277906656265D-05  .291661964729D-02  .126846134663D-04  .515362924957D+04
     .352800000000D+06 -.130385160446D-07 -.252176282733D+01  .670552253723D-07
     .989014299227D+00  .150343750000D+03 -.806877045553D+00 -.754674292356D-08
     .283583240952D-09  .100000000000D+01  .225200000000D+04  .000000000000D+00
     .240000000000D+01  .000000000000D+00  .372529029846D-08  .930000000000D+02
     .345600000000D+06  .400000000000D+01
4  23  3  9  2  0  0.0 -.113602727652D-04  .852651282912D-11  .000000000000D+00
     .700000000000D+02 -.852812500000D+02  .438839708007D-08 -.125580670592D+01
    -.454857945442D-05  .232399732340D-02  .858306884766D-05  .515370495605D+04
     .352800000000D+06 -.372529029846D-08 -.400574617792D+00 -.391155481339D-07
     .962769518163D+00  .214406250000D+03 -.301477795411D+01 -.804104922769D-08
    -.535022285826D-09  .100000000000D+01  .225200000000D+04  .000000000000D+00
     .240000000000D+01  .000000000000D+00 -.465661287308D-08  .838000000000D+03
     .345600000000D+06  .400000000000D+01
13 23  3  9  2  0  0.0  .487573910505D-03  .579802872380D-11  .000000000000D+00
     .390000000000D+02 -.857500000000D+02  .421696136765D-08 -.123149643213D+01
    -.447593629360D-05  .679880031385D-02  .943802297115D-05  .515367209244D+04
     .352800000000D+06  .204890966415D-06 -.297651531272D+00  .875443220139D-07
     .969934405227D+00  .201875000000D+03  .925924586304D+00 -.798033241288D-08
    -.575381109790D-09  .100000000000D+01  .225200000000D+04  .000000000000D+00
     .240000000000D+01  .000000000000D+00 -.111758708954D-07  .390000000000D+02
     .345600000000D+06  .400000000000D+01
12 23  3  9  2  0  0.0 -.349218025804D-03 -.466116034659D-11  .000000000000D+00
     .900000000000D+02  .261562500000D+02  .477412743300D-08  .187752717971D+01
     .121816992760D-05  .894670304842D-02  .357627868652D-05  .515363955116D+04
     .352800000000D+06 -.186264514923D-08  .172940324536D+01 -.188127160072D-06
     .965744934079D+00  .312000000000D+03  .134392779713D+01 -.832856120372D-08
     .255010622216D-09  .100000000000D+01  .225200000000D+04  .000000000000D+00
     .340000000000D+01  .000000000000D+00 -.125728547573D-07  .900000000000D+02
     .345600000000D+06  .400000000000D+01
30 23  3  9  2  0  0.0 -.527640338987D-03  .147792889038D-11  .000000000000D+00
     .660000000000D+02  .469687500000D+02  .478412784956D-08  .253125488790D+01
     .240094959736D-05  .621111283544D-02  .127162784338D-04  .515363678169D+04
     .352800000000D+06 -.596046447754D-07  .621915751413D+00 -.707805156708D-07
     .935914568598D+00  .119750000000D+03 -.263913954154D+01 -.808962267954D-08
     .337156901081D-09  .100000000000D+01  .225200000000D+04  .000000000000D+00
     .240000000000D+01  .000000000000D+00  .372529029846D-08  .660000000000D+02
     .345600000000D+06  .400000000000D+01
15 23  3  9  2  0  0.0  .198902562261D-04  .341060513165D-11  .000000000000D+00
     .850000000000D+02 -.867500000000D+02  .520057376763D-08 -.175453533532D+01
    -.438652932644D-05  .147700870875D-01  .585801899433D-05  .515368726540D+04
     .352800000000D+06  .374391674995D-06 -.572872285927D+00  .316649675369D-07
     .932098843761D+00  .247656250000D+03  .118177045977D+01 -.838677791439D-08
    -.505021036153D-09  .100000000000D+01  .225200000000D+04  .000000000000D+00
     .240000000000D+01  .000000000000D+00 -.107102096081D-07  .850000000000D+02
     .345600000000D+06  .400000000000D+01
27 23  3  9  2  0  0.0  .853398814797D-04 -.852651282912D-11  .000000000000D+00
     .800000000000D+02 -.699687500000D+02  .452840291187D-08 -.776459183876D+00
    -.350736081600D-05  .114563800162D-01  .814348459244D-05  .515366071320D+04
     .352800000000D+06  .117346644402D-06  .270352514534D+01  .195577740669D-06
     .968738087875D+00  .225843750000D+03  .708137888648D+00 -.816212569958D-08
    -.437161066656D-09  .100000000000D+01  .225200000000D+04  .000000000000D+00
     .340000000000D+01  .000000000000D+00  .186264514923D-08  .800000000000D+02
     .345600000000D+06  .400000000000D+01
20 23  3  9  2  0  0.0  .446198508143D-03 -.227373675443D-11  .000000000000D+00
     .110000000000D+03  .592187500000D+02  .527271962994D-08 -.214641391309D+01
     .324659049511D-05  .436458236072D-02  .397674739361D-05  .515376182938D+04
     .352800000000D+06  .484287738800D-07 -.164871777468D+01 -.160187482834D-06
     .946958352228D+00  .292375000000D+03 -.289879328983D+01 -.862964517365D-08
     .308584282345D-09  .100000000000D+01  .225200000000D+04  .000000000000D+00
     .240000000000D+01  .000000000000D+00 -.838190317154D-08  .110000000000D+03
     .345600000000D+06  .400000000000D+01
26 23  3  9  2  0  0.0  .241922214627D-03  .113686837722D-12  .000000000000D+00
     .970000000000D+02  .482187500000D+02  .549987194889D-08  .100468168957D+01
     .255368649960D-05  .788248237222D-02  .354461371899D-05  .515364891052D+04
     .352800000000D+06 -.335276126862D-07  .159372322282D+01  .109896063805D-06
     .934213044192D+00  .296375000000D+03  .456693962017D+00 -.880250951700D-08
     .215723271454D-09  .100000000000D+01  .225200000000D+04  .000000000000D+00
     .340000000000D+01  .000000000000D+00  .698491930962D-08  .970000000000D+02
     .345600000000D+06  .400000000000D+01
17 23  3  9  2  0  0.0  .704410020262D-03  .216004991671D-11  .000000000000D+00
     .106000000000D+03 -.692500000000D+02  .438553981819D-08 -.830100552609D+00
    -.367499887943D-05  .135787110776D-01  .957585871220D-05  .515372798157D+04
     .352800000000D+06 -.189989805222D-06  .276862904044D+01  .167638063431D-07
     .975435620889D+00  .208406250000D+03 -.141636563997D+01 -.821712799065D-08
    -.417160233541D-09  .100000000000D+01  .225200000000D+04  .000000000000D+00
     .340000000000D+01  .000000000000D+00 -.111758708954D-07  .106000000000D+03
     .345600000000D+06  .400000000000D+01
